NORAD_CAT_ID,OBJECT_NAME,OBJECT_TYPE,EPOCH,MEAN_MOTION,ECCENTRICITY,INCLINATION,RA_OF_ASC_NODE,ARG_OF_PERICENTER,MEAN_ANOMALY,BSTAR,MEAN_MOTION_DOT,MEAN_MOTION_DDOT,TLE_LINE0,TLE_LINE1,TLE_LINE2,SEMIMAJOR_AXIS,PERIOD,APOGEE,PERIGEE,DECAYED
52658.0,STARLINK-4082,PAYLOAD,2022-08-23 22:00:01,15.08850152,0.0001826,53.2141,202.0863,55.2463,69.1912,-0.00020169,-3.498e-05,0.0,0 STARLINK-4082,1 52658U 22053C   22235.91668981 -.00003498  00000-0 -20169-3 0  9997,2 52658  53.2141 202.0863 0001826  55.2463  69.1912 15.08850152  1304,6917.849,95.437,540.9780000000002,538.451,0.0
52658.0,STARLINK-4082,PAYLOAD,2022-08-24 14:00:01,15.08836588,0.0001865999999999,53.214,199.0942,48.9257,98.6318,-0.0019102999999999,-0.0003056,0.0,0 STARLINK-4082,1 52658U 22053C   22236.58334491 -.00030560  00000-0 -19103-2 0  9992,2 52658  53.2140 199.0942 0001866  48.9257  98.6318 15.08836588 16018,6917.891,95.438,541.047,538.465,0.0
52658.0,STARLINK-4082,PAYLOAD,2022-08-24 22:00:00,15.08828554,0.0001868,53.2146,197.5967,54.3283,104.8049,0.00038257,5.804e-05,0.0,0 STARLINK-4082,1 52658U 22053C   22236.91667824  .00005804  00000-0  38257-3 0  9991,2 52658  53.2146 197.5967 0001868  54.3283 104.8049 15.08828554  1307,6917.915,95.438,541.073,538.488,0.0
52658.0,STARLINK-4082,PAYLOAD,2022-08-25 06:00:02,15.08817164,0.0002056,53.2144,196.1024,48.5295,122.2557,0.0012482,0.00019621,0.0,0 STARLINK-4082,1 52658U 22053C   22237.25002315  .00019621  00000-0  12482-2 0  9990,2 52658  53.2144 196.1024 0002056  48.5295 122.2557 15.08817164 16110,6917.95,95.439,541.238,538.393,0.0
52658.0,STARLINK-4082,PAYLOAD,2022-08-25 14:00:01,15.0884544,0.0001962,53.2146,194.6048,50.2451,132.0521,-0.0016564,-0.00026558,0.0,0 STARLINK-4082,1 52658U 22053C   22237.58334491 -.00026558  00000-0 -16564-2 0  9993,2 52658  53.2146 194.6048 0001962  50.2451 132.0521 15.08845440  1303,6917.864000000001,95.437,541.086,538.371,0.0
52658.0,STARLINK-4082,PAYLOAD,2022-08-25 22:00:00,15.08842717,0.0001984,53.215,193.108,55.0932,138.7903,0.00017545,2.505e-05,0.0,0 STARLINK-4082,1 52658U 22053C   22237.91667824  .00002505  00000-0  17545-3 0  9994,2 52658  53.2150 193.1080 0001984  55.0932 138.7903 15.08842717  1300,6917.871999999999,95.437,541.11,538.365,0.0
52658.0,STARLINK-4082,PAYLOAD,2022-08-26 06:00:00,15.08824702,0.0002176,53.2152,191.6133,49.4364,156.0501,0.0018122,0.00028659,0.0,0 STARLINK-4082,1 52658U 22053C   22238.25001157  .00028659  00000-0  18122-2 0  9992,2 52658  53.2152 191.6133 0002176  49.4364 156.0501 15.08824702 16266,6917.927,95.439,541.297,538.2869999999998,0.0
52658.0,STARLINK-4082,PAYLOAD,2022-08-26 14:00:01,15.08854725,0.0002059,53.2154,190.1154,51.8484,165.2896,-0.0013713,-0.00022055,0.0,0 STARLINK-4082,1 52658U 22053C   22238.58335648 -.00022055  00000-0 -13713-2 0  9990,2 52658  53.2154 190.1154 0002059  51.8484 165.2896 15.08854725  1301,6917.835,95.437,541.125,538.276,0.0
52658.0,STARLINK-4082,PAYLOAD,2022-08-26 22:00:00,15.08861007,0.0002061,53.2158,188.6189,56.0192,172.6552,-0.00052809,-8.688e-05,0.0,0 STARLINK-4082,1 52658U 22053C   22238.91667824 -.00008688  00000-0 -52809-3 0  9997,2 52658  53.2158 188.6189 0002061  56.0192 172.6552 15.08861007  1303,6917.816,95.436,541.107,538.255,0.0
52658.0,STARLINK-4082,PAYLOAD,2022-08-27 14:00:01,15.08838912,0.0002023,53.2161,185.6263,51.8998,199.9829,-0.00092062,-0.0001491,0.0,0 STARLINK-4082,1 52658U 22053C   22239.58334491 -.00014910  00000-0 -92062-3 0  9992,2 52658  53.2161 185.6263 0002023  51.8998 199.9829 15.08838912  1300,6917.884,95.438,541.148,538.349,0.0
52658.0,STARLINK-4082,PAYLOAD,2022-08-27 20:00:01,15.08830682,0.0002009999999999,53.2164,184.5035,56.4348,114.1376,0.0015157,0.00023911,0.0,0 STARLINK-4082,1 52658U 22053C   22239.83334491  .00023911  00000-0  15157-2 0  9998,2 52658  53.2164 184.5035 0002010  56.4348 114.1376 15.08830682 16504,6917.909000000002,95.438,541.164,538.383,0.0
52658.0,STARLINK-4082,PAYLOAD,2022-08-27 22:00:00,15.0884777,0.0002026,53.2164,184.1299,55.8743,207.5908,-0.00035681,-5.964e-05,0.0,0 STARLINK-4082,1 52658U 22053C   22239.91667824 -.00005964  00000-0 -35681-3 0  9991,2 52658  53.2164 184.1299 0002026  55.8743 207.5908 15.08847770  1307,6917.857,95.437,541.123,538.32,0.0
52658.0,STARLINK-4082,PAYLOAD,2022-08-28 12:00:00,15.08866285,0.0002077,53.2162,181.5117,52.5651,141.2011,-0.0018939,-0.00030326,0.0,0 STARLINK-4082,1 52658U 22053C   22240.50001157 -.00030326  00000-0 -18939-2 0  9995,2 52658  53.2162 181.5117 0002077  52.5651 141.2011 15.08866285 16603,6917.8,95.436,541.102,538.2280000000002,0.0
52658.0,STARLINK-4082,PAYLOAD,2022-08-28 14:00:01,15.08856607,0.0002014,53.2164,181.1372,54.0565,232.6166,-0.00091275,-0.00014792,0.0,0 STARLINK-4082,1 52658U 22053C   22240.58334491 -.00014792  00000-0 -91275-3 0  9997,2 52658  53.2164 181.1372 0002014  54.0565 232.6166 15.08856607  1300,6917.83,95.437,541.0880000000002,538.3009999999998,0.0
52658.0,STARLINK-4082,PAYLOAD,2022-08-28 22:00:00,15.08860695,0.0001964,53.2166,179.641,56.2444,242.0339,-0.0026683,-0.00042529,0.0,0 STARLINK-4082,1 52658U 22053C   22240.91667824 -.00042529  00000-0 -26683-2 0  9992,2 52658  53.2166 179.6410 0001964  56.2444 242.0339 15.08860695  1309,6917.816999999999,95.436,541.0409999999998,538.323,0.0
52658.0,STARLINK-4082,PAYLOAD,2022-08-29 14:00:01,15.08835007,0.0001927,53.2162,176.6483,54.6002,266.8647,-0.00050482,-8.312e-05,0.0,0 STARLINK-4082,1 52658U 22053C   22241.58334491 -.00008312  00000-0 -50482-3 0  9994,2 52658  53.2162 176.6483 0001927  54.6002 266.8647 15.08835007 16764,6917.896,95.438,541.094,538.428,0.0
52658.0,STARLINK-4082,PAYLOAD,2022-08-29 22:00:00,15.08849971,0.0001893,53.2163,175.1522,56.3035,276.7504,-0.0027311,-0.00043504,0.0,0 STARLINK-4082,1 52658U 22053C   22241.91667824 -.00043504  00000-0 -27311-2 0  9996,2 52658  53.2163 175.1522 0001893  56.3035 276.7504 15.08849971  1301,6917.85,95.437,541.024,538.405,0.0
52658.0,STARLINK-4082,PAYLOAD,2022-08-30 14:00:01,15.08817561,0.0001888,53.2157,172.1594,55.6787,300.5372,0.00096294,0.00015061,0.0,0 STARLINK-4082,1 52658U 22053C   22242.58334491  .00015061  00000-0  96294-3 0  9993,2 52658  53.2157 172.1594 0001888  55.6787 300.5372 15.08817561  1309,6917.949000000001,95.439,541.12,538.508,0.0
52658.0,STARLINK-4082,PAYLOAD,2022-08-30 22:00:00,15.08849122,0.0001933,53.2157,170.6635,57.4767,310.3087,-0.0013335999999999,-0.00021455,0.0,0 STARLINK-4082,1 52658U 22053C   22242.91667824 -.00021455  00000-0 -13336-2 0  9990,2 52658  53.2157 170.6635 0001933  57.4767 310.3087 15.08849122 16976,6917.853,95.437,541.055,538.38,0.0
52658.0,STARLINK-4082,PAYLOAD,2022-08-31 12:00:00,15.08854964,0.0001971,53.2151,168.0448,55.2831,242.7921,-0.0014472999999999,-0.00023258,0.0,0 STARLINK-4082,1 52658U 22053C   22243.50001157 -.00023258  00000-0 -14473-2 0  9993,2 52658  53.2151 168.0448 0001971  55.2831 242.7921 15.08854964 17058,6917.835,95.437,541.063,538.336,0.0
52658.0,STARLINK-4082,PAYLOAD,2022-08-31 14:00:01,15.08836698,0.0001911999999999,53.2151,167.6703,57.1374,333.8451,0.00077682,0.00012096,0.0,0 STARLINK-4082,1 52658U 22053C   22243.58334491  .00012096  00000-0  77682-3 0  9999,2 52658  53.2151 167.6703 0001912  57.1374 333.8451 15.08836698  1300,6917.89,95.438,541.078,538.433,0.0
52658.0,STARLINK-4082,PAYLOAD,2022-08-31 22:00:00,15.08856361,0.0001961,53.2151,166.1745,57.1952,345.38,-0.0030609,-0.00048696,0.0,0 STARLINK-4082,1 52658U 22053C   22243.91667824 -.00048696  00000-0 -30609-2 0  9999,2 52658  53.2151 166.1745 0001961  57.1952 345.3800 15.08856361  1301,6917.83,95.437,541.052,538.339,0.0
52658.0,STARLINK-4082,PAYLOAD,2022-09-01 12:00:00,15.08841108,0.0001975,53.2149,163.5555,54.8753,277.9786,-0.00097539,-0.00015779,0.0,0 STARLINK-4082,1 52658U 22053C   22244.50001157 -.00015779  00000-0 -97539-3 0  9998,2 52658  53.2149 163.5555 0001975  54.8753 277.9786 15.08841108 17219,6917.877,95.437,541.1080000000002,538.376,0.0
52658.0,STARLINK-4082,PAYLOAD,2022-09-01 14:00:01,15.08818958,0.000192,53.2149,163.1809,56.6785,9.143,0.0020082999999999,0.00031801,0.0,0 STARLINK-4082,1 52658U 22053C   22244.58335648  .00031801  00000-0  20083-2 0  9992,2 52658  53.2149 163.1809 0001920  56.6785   9.1430 15.08818958  1303,6917.945,95.439,541.138,538.481,0.0
52658.0,STARLINK-4082,PAYLOAD,2022-09-01 22:00:00,15.0886089,0.000204,53.2149,161.6852,57.2626,20.0779,-0.001552,-0.00024918,0.0,0 STARLINK-4082,1 52658U 22053C   22244.91667824 -.00024918  00000-0 -15520-2 0  9996,2 52658  53.2149 161.6852 0002040  57.2626  20.0779 15.08860890  1309,6917.816999999999,95.436,541.0930000000002,538.27,0.0
52658.0,STARLINK-4082,PAYLOAD,2022-09-02 06:00:00,15.08841296,0.0002118,53.2147,160.1898,51.4736,37.4763,0.00086468,0.00013501,0.0,0 STARLINK-4082,1 52658U 22053C   22245.25001157  .00013501  00000-0  86468-3 0  9999,2 52658  53.2147 160.1898 0002118  51.4736  37.4763 15.08841296 17328,6917.876,95.437,541.207,538.276,0.0
52658.0,STARLINK-4082,PAYLOAD,2022-09-02 14:00:01,15.08814726,0.000192,53.215,158.6915,56.2186,44.3437,0.0018137,0.00028675,0.0,0 STARLINK-4082,1 52658U 22053C   22245.58334491  .00028675  00000-0  18137-2 0  9990,2 52658  53.2150 158.6915 0001920  56.2186  44.3437 15.08814726  1300,6917.958000000001,95.439,541.151,538.494,0.0
52658.0,STARLINK-4082,PAYLOAD,2022-09-02 20:00:01,15.08844223,0.0002000999999999,53.2152,157.5695,57.718,321.5185,-0.00050193,-8.269e-05,0.0,0 STARLINK-4082,1 52658U 22053C   22245.83334491 -.00008269  00000-0 -50193-3 0  9996,2 52658  53.2152 157.5695 0002001  57.7180 321.5185 15.08844223 17410,6917.8669999999975,95.437,541.117,538.3480000000002,0.0
52658.0,STARLINK-4082,PAYLOAD,2022-09-02 22:00:01,15.08850298,0.0002058,53.2151,157.1958,56.0871,56.1102,-0.0015576,-0.00025,0.0,0 STARLINK-4082,1 52658U 22053C   22245.91668981 -.00025000  00000-0 -15576-2 0  9996,2 52658  53.2151 157.1958 0002058  56.0871  56.1102 15.08850298  1308,6917.849,95.437,541.138,538.29,0.0
